1 23764U 96002A   04002.65555734 -.00000250 +00000-0 +00000-0 0  9993
2 23764 000.0073 237.5757 0002043 036.2989 020.7590 01.00270637029208
1 23764U 96002A   04005.99896935 -.00000248 +00000-0 +00000-0 0  9991
2 23764 000.0192 080.5706 0002090 193.3397 147.6676 01.00271438029248
1 23764U 96002A   04005.99896935 -.00000248  00000-0  00000+0 0  9990
2 23764 000.0192 080.5926 0002090 193.3217 147.6635 01.00271438 29248
1 23764U 96002A   04006.99554964 -.00000249 +00000-0 +00000-0 0  9996
2 23764 000.0220 080.0311 0002078 194.0654 147.2345 01.00271232029259
1 23764U 96002A   04007.93436453  .00000000  00000-0  10000-3 0  9991
2 23764 000.0239 053.6340 0003199 151.3345 195.0798 01.00261995 29242
1 23764U 96002A   04008.64880019 -.00000251 +00000-0 +00000-0 0  9996
2 23764 000.0258 083.2404 0002171 195.2249 019.6516 01.00270281029261
1 23764U 96002A   04012.64611633 -.00000253 +00000-0 +00000-0 0  9997
2 23764 000.0210 106.1499 0002268 179.6858 015.2574 01.00269653029309
1 23764U 96002A   04015.65242756 -.00000254 +00000-0 +00000-0 0  9998
2 23764 000.0082 240.5176 0002284 065.3213 000.4858 01.00269403029332
1 23764U 96002A   04019.02403840 -.00000263 +00000-0 +00000-0 0  9996
2 23764 000.0048 228.2338 0002267 079.2397 135.9232 01.00268385029377
1 23764U 96002A   04020.02012948 -.00000268 +00000-0 +00000-0 0  9998
2 23764 000.0100 251.6565 0002261 059.4249 131.8710 01.00267759029389
1 23764U 96002A   04021.89892512  .00000000  00000-0  10000-3 0  9994
2 23764 000.0453 032.7405 0002609 006.0475 002.3590 01.00263090 29412
1 23764U 96002A   04022.84387733 -.00000276 +00000-0 +00000-0 0  9996
2 23764 000.0041 254.7356 0002366 058.4163 069.0743 01.00266340029412
1 23764U 96002A   04026.10000000 -.00000271 +00000-0 +00000-0 0  9993
2 23764 000.0200 089.6490 0002273 244.3720 143.7260 01.00272465029447
1 23764U 96002A   04027.03552999 -.00000268 +00000-0 +00000-0 0  9991
2 23764 000.0085 132.9437 0002273 201.0952 121.4098 01.00276079029456
1 23764U 96002A   04030.61576225 -.00000260 +00000-0 +00000-0 0  9999
2 23764 000.0215 184.5591 0003523 127.6669 355.4197 01.00258550029488
1 23764U 96002A   04033.74982552 -.00000258 +00000-0 +00000-0 0  9997
2 23764 000.0218 222.5816 0002019 088.9480 047.7025 01.00271271029513
1 23764U 96002A   04037.22796297 -.00000262 +00000-0 +00000-0 0  9998
2 23764 000.0353 235.6982 0002930 063.0257 236.0838 01.00270931029551
1 23764U 96002A   04037.99350108 -.00000263 +00000-0 +00000-0 0  9990
2 23764 000.0114 235.5850 0002037 071.9214 143.6488 01.00270444029562
1 23764U 96002A   04040.99975112 -.00000262 +00000-0 +00000-0 0  9991
2 23764 000.0227 201.8420 0002321 087.6943 166.8396 01.00270910029591
1 23764U 96002A   04042.00183448 -.00000262 +00000-0 +00000-0 0  9998
2 23764 000.0309 224.3504 0002516 057.3718 176.3901 01.00270491029609
1 23764U 96002A   04048.01141420 -.00000280 +00000-0 +00000-0 0  9999
2 23764 000.0467 264.1634 0002303 105.5858 097.6596 01.00268112029663
1 23764U 96002A   04051.01717015 -.00000286 +00000-0 +00000-0 0  9998
2 23764 000.0262 264.8101 0002726 104.8394 102.7575 01.00267544029694
1 23764U 96002A   04054.62690628 -.00000277 +00000-0 +00000-0 0  9998
2 23764 000.0319 262.1942 0001911 082.5165 350.8049 01.00270636029726
1 23764U 96002A   04057.02429619 -.00000269 +00000-0 +00000-0 0  9996
2 23764 000.0337 267.1598 0001911 098.0683 115.7243 01.00270642029759
1 23764U 96002A   04058.64375403 -.00000267 +00000-0 +00000-0 0  9994
2 23764 000.0278 266.1698 0001895 083.4611 355.9362 01.00270914029766
1 23764U 96002A   04060.99653936 -.00000267 +00000-0 +00000-0 0  9995
2 23764 000.0207 252.0076 0001942 107.2165 115.6646 01.00270312029795
1 23764U 96002A   04062.20000000 -.00000267 +00000-0 +00000-0 0  9999
2 23764 000.0150 178.6010 0002159 173.8110 196.9360 01.00270683029801
1 23764U 96002A   04063.03748399 -.00000268 +00000-0 +00000-0 0  9992
2 23764 000.0178 231.1900 0002019 115.4535 144.9944 01.00269926029812
1 23764U 96002A   04065.69342050 -.00000270 +00000-0 +00000-0 0  9993
2 23764 000.0187 239.4190 0002018 099.9457 031.0372 01.00270397029840
1 23764U 96002A   04067.96987270 -.00000269 +00000-0 +00000-0 0  9992
2 23764 000.0150 240.5749 0001970 102.5031 129.0897 01.00270106029868
1 23764U 96002A   04069.00398183 -.00000268 +00000-0 +00000-0 0  9997
2 23764 000.0149 222.2152 0001994 121.4792 141.7778 01.00270218029875
1 23764U 96002A   04075.76366152 -.00000287 +00000-0 +00000-0 0  9999
2 23764 000.0131 213.0958 0002621 172.9296 019.5056 01.00256785029948
1 23764U 96002A   04078.00260630 -.00000290 +00000-0 +00000-0 0  9997
2 23764 000.0058 198.8903 0007131 280.1811 014.7320 01.00265222029961
1 23764U 96002A   04079.00309656  .00000000  00000-0  10000-3 0  9992
2 23764 000.0170 077.7783 0002204 257.2933 159.8060 01.00263043 29975
1 23764U 96002A   04079.60908692 -.00000287 +00000-0 +00000-0 0  9997
2 23764 000.0219 170.1429 0002621 215.9602 327.6476 01.00275464029977
1 23764U 96002A   04082.65754138 -.00000277 +00000-0 +00000-0 0  9999
2 23764 000.0115 157.7343 0002059 204.2434 012.2274 01.00272585030018
1 23764U 96002A   04083.01671051 -.00000276 +00000-0 +00000-0 0  9991
2 23764 000.0087 159.6513 0002055 209.0122 135.2025 01.00272746030018
1 23764U 96002A   04085.02087738 -.00000270 +00000-0 +00000-0 0  9991
2 23764 000.0078 173.0428 0002059 195.6400 138.6678 01.00272314030030
1 23764U 96002A   04086.65311418 -.00000268 +00000-0 +00000-0 0  9993
2 23764 000.0153 169.2713 0002014 195.1804 012.1191 01.00272003030055
1 23764U 96002A   04087.14615742 -.00000268 +00000-0 +00000-0 0  9995
2 23764 000.0115 183.6445 0001887 186.6368 184.2790 01.00272171030054
1 23764U 96002A   04088.02064229 -.00000268 +00000-0 +00000-0 0  9991
2 23764 000.0121 184.6067 0001882 185.7637 139.8672 01.00271854030069
1 23764U 96002A   04090.08947240 -.00000269 +00000-0 +00000-0 0  9994
2 23764 000.0125 186.0342 0001992 179.6117 171.4020 01.00270871030081
1 23764U 96002A   04092.02959291 -.00000269 +00000-0 +00000-0 0  9999
2 23764 000.0070 182.5424 0002040 187.2084 147.6398 01.00269999030100
1 23764U 96002A   04096.61259178 -.00000266 +00000-0 +00000-0 0  9992
2 23764 000.0014 202.9908 0002404 158.6490 010.1571 01.00270797030159
1 23764U 96002A   04097.14823490  .00000000  00000-0  10000-3 0  9994
2 23764 000.0072 189.7368 0003514 169.8154 205.6090 01.00266248 30163
1 23764U 96002A   04098.03692016 -.00000266 +00000-0 +00000-0 0  9992
2 23764 000.0031 192.5904 0002485 184.2936 149.0884 01.00271236030166
1 23764U 96002A   04102.90323497 -.00000282 +00000-0 +00000-0 0  9996
2 23764 000.0202 199.9041 0002361 153.0632 129.5703 01.00267223030219
1 23764U 96002A   04106.12538353  .00000000  00000-0  10000-3 0  9994
2 23764 000.0110 187.6901 0004026 151.1124 226.9279 01.00264216 30254
1 23764U 96002A   04106.66288633 -.00000285 +00000-0 +00000-0 0  9998
2 23764 000.0114 181.6597 0002410 192.2342 025.8813 01.00268475030257
1 23764U 96002A   04109.91344485 -.00000273 +00000-0 +00000-0 0  9994
2 23764 000.0175 145.0269 0001929 228.8276 119.3534 01.00272055030281
1 23764U 96002A   04111.80563120 -.00000267 +00000-0 +00000-0 0  9997
2 23764 000.0208 150.8570 0001900 223.5735 081.8355 01.00271670030307
1 23764U 96002A   04116.89549770 -.00000263 +00000-0 +00000-0 0  9992
2 23764 000.0339 144.0402 0001828 234.0074 115.5883 01.00270344030356
1 23764U 96002A   04117.94129631 -.00000264  00000-0  00000+0 0  9999
2 23764   0.0401 148.6854 0001834 232.5974 129.8692  1.00270274 30365
1 23764U 96002A   04121.55203907 -.00000262 +00000-0 +00000-0 0  9999
2 23764 000.0405 147.5276 0002036 224.5483 002.4900 01.00269511030401
1 23764U 96002A   04126.73586965 -.00000262  00000-0  00000+0 0  9991
2 23764   0.0461 139.3259 0002778 266.6995  39.8494  1.00270103 30457
1 23764U 96002A   04127.40189882 -.00000264  00000-0  00000+0 0  9995
2 23764   0.0395 123.8010 0002037 248.3970 314.0900  1.00269288 30456
1 23764U 96002A   04128.59368924 -.00000268  00000-0  00000+0 0  9996
2 23764   0.0502 129.8499 0002340 302.8017 323.8658  1.00269073 30470
1 23764U 96002A   04133.72266205 -.00000279  00000-0  00000+0 0  9998
2 23764   0.0640 118.2888 0002323 313.9235  15.7280  1.00267304 30522
1 23764U 96002A   04135.62920469 -.00000273 +00000-0 +00000-0 0  9993
2 23764 000.0310 143.2094 0001774 279.6208 353.3907 01.00276186030547
1 23764U 96002A   04140.71874481 -.00000258  00000-0  00000+0 0  9993
2 23764   0.0416 138.8769 0001799 284.7511  29.8632  1.00272264 30592
1 23764U 96002A   04145.14717594 -.00000258  00000-0  00000+0 0  9996
2 23764   0.0463 145.2461 0001781 280.0081 186.8355  1.00270700 30631
1 23764U 96002A   04145.27437563 -.00000258  00000-0  00000+0 0  9995
2 23764   0.0538 129.1138 0001776 295.8374 233.0556  1.00270666 30638
1 23764U 96002A   04147.78853006  .00000000  00000-0  10000-3 0  9996
2 23764   0.0630 127.9042 0000735  80.7950 276.8054  1.00263348 30655
1 23764U 96002A   04148.97623265 -.00000256  00000-0  00000+0 0  9999
2 23764   0.0426 148.6159 0001839 267.9689 137.7268  1.00269538 30672
1 23764U 96002A   04149.00538413 -.00000256 +00000-0 +00000-0 0  9995
2 23764 000.0420 151.7725 0001852 265.1579 147.9053 01.00269553030675
1 23764U 96002A   04149.62660603 -.00000255  00000-0  00000+0 0  9998
2 23764   0.0382 153.3808 0001915 266.8018   8.8981  1.00269318 30683
1 23764U 96002A   04152.91381946 -.00000254  00000-0  00000+0 0  9993
2 23764   0.0052  51.4599 0001657  26.2522  98.0418  1.00273568 30715
1 23764U 96002A   04155.91776622 -.00000263  00000-0  00000+0 0  9995
2 23764   0.0419  96.7385 0001764 340.6910 102.7016  1.00271706 30742
1 23764U 96002A   04157.67291891 -.00000271  00000-0  00000+0 0  9999
2 23764   0.0497  86.5986 0001764 350.8578  16.2242  1.00268674 30767
1 23764U 96002A   04161.48569911 -.00000275  00000-0  00000+0 0  9998
2 23764   0.0469  80.7022 0002554 351.8825 317.4281  1.00268607 30807
1 23764U 96002A   04162.98190395 -.00000270  00000-0  00000+0 0  9995
2 23764   0.0412  76.3639 0002778   6.7006 127.0634  1.00268998 30816
